{"type": "FeatureCollection", "features": [ {"type": "Feature", "properties": {"norad_id": 35142, "name": "FENGYUN 1C DEB", "group": "fengyun-1c-debris", "lat": 56.70177407201831, "lon": -175.71694471895609, "alt_km": 881.4447527024822, "timestamp": "2025-12-24T09:46:31.291714+00:00", "meta": {"OBJECT_NAME": "FENGYUN 1C DEB", "OBJECT_ID": "1999-025DLW", "EPOCH": "2025-12-22T11:17:59.858880", "MEAN_MOTION": 13.90511654, "ECCENTRICITY": 0.01079849, "INCLINATION": 99.0448, "RA_OF_ASC_NODE": 348.3644, "ARG_OF_PERICENTER": 187.5379, "MEAN_ANOMALY": 327.226, "EPHEMERIS_TYPE": 0, "CLASSIFICATION_TYPE": "U", "NORAD_CAT_ID": 35142, "ELEMENT_SET_NO": 999, "REV_AT_EPOCH": 85824, "BSTAR": 0.00012122945, "MEAN_MOTION_DOT": 1.15e-06, "MEAN_MOTION_DDOT": 0}, "tle": {"line1": "1 35142U 99025DLW 25356.47083170  .00000115  00000+0  12123-3 0  9999", "line2": "2 35142  99.0448 348.3644 0107984 187.5379 327.2260 13.90511654858246"}}, "geometry": {"type": "Point", "coordinates": [-175.71694471895609, 56.70177407201831]}}, {"type": "Feature", "properties": {"norad_id": 35144, "name": "FENGYUN 1C DEB", "group": "fengyun-1c-debris", "lat": 29.37121833459778, "lon": 109.36972362730603, "alt_km": 685.546632623571, "timestamp": "2025-12-24T09:46:31.291724+00:00", "meta": {"OBJECT_NAME": "FENGYUN 1C DEB", "OBJECT_ID": "1999-025DLY", "EPOCH": "2025-12-15T03:29:25.584864", "MEAN_MOTION": 14.59259684, "ECCENTRICITY": 0.00266192, "INCLINATION": 98.6997, "RA_OF_ASC_NODE": 104.611, "ARG_OF_PERICENTER": 353.8009, "MEAN_ANOMALY": 6.2856, "EPHEMERIS_TYPE": 0, "CLASSIFICATION_TYPE": "U", "NORAD_CAT_ID": 35144, "ELEMENT_SET_NO": 999, "REV_AT_EPOCH": 65248, "BSTAR": 0.0015089834, "MEAN_MOTION_DOT": 7.114e-05, "MEAN_MOTION_DDOT": 0}, "tle": {"line1": "1 35144U 99025DLY 25349.14543501  .00007114  00000+0  15090-2 0  9997", "line2": "2 35144  98.6997 104.6110 0026619 353.8009   6.2856 14.59259684652487"}}, "geometry": {"type": "Point", "coordinates": [109.36972362730603, 29.37121833459778]}}, {"type": "Feature", "properties": {"norad_id": 35147, "name": "FENGYUN 1C DEB", "group": "fengyun-1c-debris", "lat": 43.14904249378661, "lon": -97.30348028313114, "alt_km": 625.6618175779977, "timestamp": "2025-12-24T09:46:31.291734+00:00", "meta": {"OBJECT_NAME": "FENGYUN 1C DEB", "OBJECT_ID": "1999-025DMB", "EPOCH": "2025-12-23T23:23:21.817248", "MEAN_MOTION": 14.74608157, "ECCENTRICITY": 0.0027473, "INCLINATION": 99.4858, "RA_OF_ASC_NODE": 73.1732, "ARG_OF_PERICENTER": 165.2054, "MEAN_ANOMALY": 194.996, "EPHEMERIS_TYPE": 0, "CLASSIFICATION_TYPE": "U", "NORAD_CAT_ID": 35147, "ELEMENT_SET_NO": 999, "REV_AT_EPOCH": 74470, "BSTAR": 0.0022391, "MEAN_MOTION_DOT": 0.00014981, "MEAN_MOTION_DDOT": 0}, "tle": {"line1": "1 35147U 99025DMB 25357.97455807  .00014981  00000+0  22391-2 0  9993", "line2": "2 35147  99.4858  73.1732 0027473 165.2054 194.9960 14.74608157744707"}}, "geometry": {"type": "Point", "coordinates": [-97.30348028313114, 43.14904249378661]}}, {"type": "Feature", "properties": {"norad_id": 35152, "name": "FENGYUN 1C DEB", "group": "fengyun-1c-debris", "lat": 74.65818269427679, "lon": 142.3234989109525, "alt_km": 973.7404913299406, "timestamp": "2025-12-24T09:46:31.291745+00:00", "meta": {"OBJECT_NAME": "FENGYUN 1C DEB", "OBJECT_ID": "1999-025DMG", "EPOCH": "2025-12-16T18:13:57.032832", "MEAN_MOTION": 13.7643783, "ECCENTRICITY": 0.01945259, "INCLINATION": 99.8194, "RA_OF_ASC_NODE": 173.5777, "ARG_OF_PERICENTER": 5.0809, "MEAN_ANOMALY": 355.2255, "EPHEMERIS_TYPE": 0, "CLASSIFICATION_TYPE": "U", "NORAD_CAT_ID": 35152, "ELEMENT_SET_NO": 999, "REV_AT_EPOCH": 62248, "BSTAR": 0.00057948786, "MEAN_MOTION_DOT": 6.03e-06, "MEAN_MOTION_DDOT": 0}, "tle": {"line1": "1 35152U 99025DMG 25350.75968788  .00000603  00000+0  57949-3 0  9999", "line2": "2 35152  99.8194 173.5777 0194525   5.0809 355.2255 13.76437830622484"}}, "geometry": {"type": "Point", "coordinates": [142.3234989109525, 74.65818269427679]}}, {"type": "Feature", "properties": {"norad_id": 35153, "name": "FENGYUN 1C DEB", "group": "fengyun-1c-debris", "lat": 55.919569397965844, "lon": -122.04745566993802, "alt_km": 525.2938349733213, "timestamp": "2025-12-24T09:46:31.291755+00:00", "meta": {"OBJECT_NAME": "FENGYUN 1C DEB", "OBJECT_ID": "1999-025DMH", "EPOCH": "2025-12-23T12:20:37.451040", "MEAN_MOTION": 14.73794297, "ECCENTRICITY": 0.01708912, "INCLINATION": 98.9019, "RA_OF_ASC_NODE": 250.3679, "ARG_OF_PERICENTER": 49.7211, "MEAN_ANOMALY": 311.8793, "EPHEMERIS_TYPE": 0, "CLASSIFICATION_TYPE": "U", "NORAD_CAT_ID": 35153, "ELEMENT_SET_NO": 999, "REV_AT_EPOCH": 97376, "BSTAR": 0.00039714286, "MEAN_MOTION_DOT": 3.213e-05, "MEAN_MOTION_DDOT": 0}, "tle": {"line1": "1 35153U 99025DMH 25357.51432235  .00003213  00000+0  39714-3 0  9994", "line2": "2 35153  98.9019 250.3679 0170891  49.7211 311.8793 14.73794297973764"}}, "geometry": {"type": "Point", "coordinates": [-122.04745566993802, 55.919569397965844]}}, {"type": "Feature", "properties": {"norad_id": 35154, "name": "FENGYUN 1C DEB", "group": "fengyun-1c-debris", "lat": -39.267759162708195, "lon": -67.18049298756313, "alt_km": 946.3436841198336, "timestamp": "2025-12-24T09:46:31.291766+00:00", "meta": {"OBJECT_NAME": "FENGYUN 1C DEB", "OBJECT_ID": "1999-025DMJ", "EPOCH": "2025-12-24T01:58:11.654112", "MEAN_MOTION": 14.18912921, "ECCENTRICITY": 0.0178909, "INCLINATION": 99.4221, "RA_OF_ASC_NODE": 120.2762, "ARG_OF_PERICENTER": 10.5644, "MEAN_ANOMALY": 349.921, "EPHEMERIS_TYPE": 0, "CLASSIFICATION_TYPE": "U", "NORAD_CAT_ID": 35154, "ELEMENT_SET_NO": 999, "REV_AT_EPOCH": 64738, "BSTAR": 0.00026986, "MEAN_MOTION_DOT": 6.08e-06, "MEAN_MOTION_DDOT": 0}, "tle": {"line1": "1 35154U 99025DMJ 25358.08207933  .00000608  00000+0  26986-3 0  9995", "line2": "2 35154  99.4221 120.2762 0178909  10.5644 349.9210 14.18912921647385"}}, "geometry": {"type": "Point", "coordinates": [-67.18049298756313, -39.267759162708195]}}, {"type": "Feature", "properties": {"norad_id": 35155, "name": "FENGYUN 1C DEB", "group": "fengyun-1c-debris", "lat": -2.9855116719934194, "lon": 10.052557665159085, "alt_km": 816.943099140688, "timestamp": "2025-12-24T09:46:31.291777+00:00", "meta": {"OBJECT_NAME": "FENGYUN 1C DEB", "OBJECT_ID": "1999-025DMK", "EPOCH": "2025-12-13T11:32:29.448096", "MEAN_MOTION": 14.19285709, "ECCENTRICITY": 0.00260991, "INCLINATION": 98.5012, "RA_OF_ASC_NODE": 359.121, "ARG_OF_PERICENTER": 70.7543, "MEAN_ANOMALY": 289.6454, "EPHEMERIS_TYPE": 0, "CLASSIFICATION_TYPE": "U", "NORAD_CAT_ID": 35155, "ELEMENT_SET_NO": 999, "REV_AT_EPOCH": 72724, "BSTAR": 0.00090034288, "MEAN_MOTION_DOT": 1.854e-05, "MEAN_MOTION_DDOT": 0}, "tle": {"line1": "1 35155U 99025DMK 25347.48089639  .00001854  00000+0  90034-3 0  9998", "line2": "2 35155  98.5012 359.1210 0026099  70.7543 289.6454 14.19285709727245"}}, "geometry": {"type": "Point", "coordinates": [10.052557665159085, -2.9855116719934194]}}, {"type": "Feature", "properties": {"norad_id": 35156, "name": "FENGYUN 1C DEB", "group": "fengyun-1c-debris", "lat": 71.56559266952792, "lon": -43.00566891131571, "alt_km": 829.9944019527593, "timestamp": "2025-12-24T09:46:31.291787+00:00", "meta": {"OBJECT_NAME": "FENGYUN 1C DEB", "OBJECT_ID": "1999-025DML", "EPOCH": "2025-12-22T09:45:46.789920", "MEAN_MOTION": 14.10637167, "ECCENTRICITY": 0.00374137, "INCLINATION": 98.7528, "RA_OF_ASC_NODE": 342.5755, "ARG_OF_PERICENTER": 121.1131, "MEAN_ANOMALY": 239.3719, "EPHEMERIS_TYPE": 0, "CLASSIFICATION_TYPE": "U", "NORAD_CAT_ID": 35156, "ELEMENT_SET_NO": 999, "REV_AT_EPOCH": 64180, "BSTAR": 0.00031397822, "MEAN_MOTION_DOT": 5.21e-06, "MEAN_MOTION_DDOT": 0}, "tle": {"line1": "1 35156U 99025DML 25356.40679155  .00000521  00000+0  31398-3 0  9997", "line2": "2 35156  98.7528 342.5755 0037413 121.1131 239.3719 14.10637167641809"}}, "geometry": {"type": "Point", "coordinates": [-43.00566891131571, 71.56559266952792]}}, {"type": "Feature", "properties": {"norad_id": 35159, "name": "FENGYUN 1C DEB", "group": "fengyun-1c-debris", "lat": 50.397436633452344, "lon": -95.07445089646833, "alt_km": 730.4178861659839, "timestamp": "2025-12-24T09:46:31.291797+00:00", "meta": {"OBJECT_NAME": "FENGYUN 1C DEB", "OBJECT_ID": "1999-025DMP", "EPOCH": "2025-12-23T17:16:37.371936", "MEAN_MOTION": 14.45286937, "ECCENTRICITY": 0.00094944, "INCLINATION": 98.8378, "RA_OF_ASC_NODE": 73.3712, "ARG_OF_PERICENTER": 158.5401, "MEAN_ANOMALY": 355.5286, "EPHEMERIS_TYPE": 0, "CLASSIFICATION_TYPE": "U", "NORAD_CAT_ID": 35159, "ELEMENT_SET_NO": 999, "REV_AT_EPOCH": 61639, "BSTAR": 0.0019831289, "MEAN_MOTION_DOT": 6.923e-05, "MEAN_MOTION_DDOT": 0}, "tle": {"line1": "1 35159U 99025DMP 25357.71987699  .00006923  00000+0  19831-2 0  9999", "line2": "2 35159  98.8378  73.3712 0009494 158.5401 355.5286 14.45286937616399"}}, "geometry": {"type": "Point", "coordinates": [-95.07445089646833, 50.397436633452344]}}, {"type": "Feature", "properties": {"norad_id": 35160, "name": "FENGYUN 1C DEB", "group": "fengyun-1c-debris", "lat": -1.4097693705107088, "lon": -66.66690287679742, "alt_km": 659.493371172026, "timestamp": "2025-12-24T09:46:31.291807+00:00", "meta": {"OBJECT_NAME": "FENGYUN 1C DEB", "OBJECT_ID": "1999-025DMQ", "EPOCH": "2025-12-16T13:37:44.190912", "MEAN_MOTION": 14.35976797, "ECCENTRICITY": 0.01760845, "INCLINATION": 99.155, "RA_OF_ASC_NODE": 105.2355, "ARG_OF_PERICENTER": 228.1924, "MEAN_ANOMALY": 130.4106, "EPHEMERIS_TYPE": 0, "CLASSIFICATION_TYPE": "U", "NORAD_CAT_ID": 35160, "ELEMENT_SET_NO": 999, "REV_AT_EPOCH": 64986, "BSTAR": 0.00041002814, "MEAN_MOTION_DOT": 1.364e-05, "MEAN_MOTION_DDOT": 0}, "tle": {"line1": "1 35160U 99025DMQ 25350.56787258  .00001364  00000+0  41003-3 0  9997", "line2": "2 35160  99.1550 105.2355 0176084 228.1924 130.4106 14.35976797649867"}}, "geometry": {"type": "Point", "coordinates": [-66.66690287679742, -1.4097693705107088]}}]}